[{"OBJECT_NAME":"IRIDIUM 33 DEB","OBJECT_ID":"1997-051RA","EPOCH":"2026-04-25T18:52:58.014912","MEAN_MOTION":14.69821534,"ECCENTRICITY":0.00096882,"INCLINATION":86.3539,"RA_OF_ASC_NODE":309.1862,"ARG_OF_PERICENTER":220.8584,"MEAN_ANOMALY":139.1906,"EPHEMERIS_TYPE":0,"CLASSIFICATION_TYPE":"U","NORAD_CAT_ID":35628,"ELEMENT_SET_NO":999,"REV_AT_EPOCH":88414,"BSTAR":0.00099229845,"MEAN_MOTION_DOT":5.952e-5,"MEAN_MOTION_DDOT":0},{"OBJECT_NAME":"IRIDIUM 33 DEB","OBJECT_ID":"1997-051RD","EPOCH":"2026-04-25T00:56:04.598304","MEAN_MOTION":14.4772547,"ECCENTRICITY":0.00183702,"INCLINATION":86.3654,"RA_OF_ASC_NODE":323.5859,"ARG_OF_PERICENTER":42.0713,"MEAN_ANOMALY":111.5742,"EPHEMERIS_TYPE":0,"CLASSIFICATION_TYPE":"U","NORAD_CAT_ID":35631,"ELEMENT_SET_NO":999,"REV_AT_EPOCH":89125,"BSTAR":0.00016884492,"MEAN_MOTION_DOT":6.45e-6,"MEAN_MOTION_DDOT":0},{"OBJECT_NAME":"IRIDIUM 33 DEB","OBJECT_ID":"1997-051RJ","EPOCH":"2026-04-25T08:00:38.244672","MEAN_MOTION":14.22804913,"ECCENTRICITY":0.01462937,"INCLINATION":86.1034,"RA_OF_ASC_NODE":322.2937,"ARG_OF_PERICENTER":213.4714,"MEAN_ANOMALY":324.9896,"EPHEMERIS_TYPE":0,"CLASSIFICATION_TYPE":"U","NORAD_CAT_ID":35680,"ELEMENT_SET_NO":999,"REV_AT_EPOCH":62599,"BSTAR":0.0015712206,"MEAN_MOTION_DOT":3.951e-5,"MEAN_MOTION_DDOT":0},{"OBJECT_NAME":"IRIDIUM 33 DEB","OBJECT_ID":"1997-051RX","EPOCH":"2026-04-25T08:58:33.144672","MEAN_MOTION":14.729835,"ECCENTRICITY":0.00224997,"INCLINATION":86.325,"RA_OF_ASC_NODE":264.9309,"ARG_OF_PERICENTER":98.3382,"MEAN_ANOMALY":262.0387,"EPHEMERIS_TYPE":0,"CLASSIFICATION_TYPE":"U","NORAD_CAT_ID":35744,"ELEMENT_SET_NO":999,"REV_AT_EPOCH":89297,"BSTAR":0.0010491992,"MEAN_MOTION_DOT":6.786e-5,"MEAN_MOTION_DDOT":0},{"OBJECT_NAME":"IRIDIUM 33 DEB","OBJECT_ID":"1997-051SF","EPOCH":"2026-04-21T16:55:25.185504","MEAN_MOTION":14.8686365,"ECCENTRICITY":0.00122638,"INCLINATION":86.3315,"RA_OF_ASC_NODE":270.0322,"ARG_OF_PERICENTER":69.8886,"MEAN_ANOMALY":290.3658,"EPHEMERIS_TYPE":0,"CLASSIFICATION_TYPE":"U","NORAD_CAT_ID":35797,"ELEMENT_SET_NO":999,"REV_AT_EPOCH":89269,"BSTAR":0.0012475383,"MEAN_MOTION_DOT":0.00011179,"MEAN_MOTION_DDOT":0},{"OBJECT_NAME":"IRIDIUM 33 DEB","OBJECT_ID":"1997-051SQ","EPOCH":"2026-04-20T07:51:50.054688","MEAN_MOTION":14.58851578,"ECCENTRICITY":0.00137914,"INCLINATION":86.3423,"RA_OF_ASC_NODE":323.9574,"ARG_OF_PERICENTER":4.546,"MEAN_ANOMALY":355.5872,"EPHEMERIS_TYPE":0,"CLASSIFICATION_TYPE":"U","NORAD_CAT_ID":35806,"ELEMENT_SET_NO":999,"REV_AT_EPOCH":88198,"BSTAR":0.00056202912,"MEAN_MOTION_DOT":2.653e-5,"MEAN_MOTION_DDOT":0},{"OBJECT_NAME":"IRIDIUM 33 DEB","OBJECT_ID":"1997-051ST","EPOCH":"2026-04-25T03:44:45.915936","MEAN_MOTION":14.78825146,"ECCENTRICITY":0.00134389,"INCLINATION":86.3238,"RA_OF_ASC_NODE":274.411,"ARG_OF_PERICENTER":139.3012,"MEAN_ANOMALY":220.9215,"EPHEMERIS_TYPE":0,"CLASSIFICATION_TYPE":"U","NORAD_CAT_ID":35809,"ELEMENT_SET_NO":999,"REV_AT_EPOCH":88777,"BSTAR":0.0014427626,"MEAN_MOTION_DOT":0.00010658,"MEAN_MOTION_DDOT":0},{"OBJECT_NAME":"IRIDIUM 33 DEB","OBJECT_ID":"1997-051SW","EPOCH":"2026-04-24T15:49:06.754944","MEAN_MOTION":14.4372116,"ECCENTRICITY":0.00200744,"INCLINATION":86.3788,"RA_OF_ASC_NODE":2.1031,"ARG_OF_PERICENTER":93.5701,"MEAN_ANOMALY":266.7796,"EPHEMERIS_TYPE":0,"CLASSIFICATION_TYPE":"U","NORAD_CAT_ID":35846,"ELEMENT_SET_NO":999,"REV_AT_EPOCH":73246,"BSTAR":0.00032228487,"MEAN_MOTION_DOT":1.117e-5,"MEAN_MOTION_DDOT":0},{"OBJECT_NAME":"IRIDIUM 33 DEB","OBJECT_ID":"1997-051SY","EPOCH":"2026-04-25T19:50:53.727936","MEAN_MOTION":14.82196896,"ECCENTRICITY":0.00098976,"INCLINATION":86.3871,"RA_OF_ASC_NODE":315.6489,"ARG_OF_PERICENTER":95.4967,"MEAN_ANOMALY":264.7385,"EPHEMERIS_TYPE":0,"CLASSIFICATION_TYPE":"U","NORAD_CAT_ID":35848,"ELEMENT_SET_NO":999,"REV_AT_EPOCH":68674,"BSTAR":0.0012547819,"MEAN_MOTION_DOT":0.00010037,"MEAN_MOTION_DDOT":0},{"OBJECT_NAME":"IRIDIUM 33 DEB","OBJECT_ID":"1997-051TA","EPOCH":"2026-04-24T04:46:08.066208","MEAN_MOTION":14.82268518,"ECCENTRICITY":0.00111687,"INCLINATION":86.3443,"RA_OF_ASC_NODE":283.7962,"ARG_OF_PERICENTER":99.187,"MEAN_ANOMALY":261.0617,"EPHEMERIS_TYPE":0,"CLASSIFICATION_TYPE":"U","NORAD_CAT_ID":35850,"ELEMENT_SET_NO":999,"REV_AT_EPOCH":73317,"BSTAR":0.0010799901,"MEAN_MOTION_DOT":8.658e-5,"MEAN_MOTION_DDOT":0},{"OBJECT_NAME":"IRIDIUM 33 DEB","OBJECT_ID":"1997-051TY","EPOCH":"2026-04-22T17:36:38.229120","MEAN_MOTION":14.84694584,"ECCENTRICITY":0.00125069,"INCLINATION":86.3392,"RA_OF_ASC_NODE":282.8815,"ARG_OF_PERICENTER":101.5638,"MEAN_ANOMALY":258.699,"EPHEMERIS_TYPE":0,"CLASSIFICATION_TYPE":"U","NORAD_CAT_ID":35915,"ELEMENT_SET_NO":999,"REV_AT_EPOCH":10027,"BSTAR":0.00099923654,"MEAN_MOTION_DOT":8.497e-5,"MEAN_MOTION_DDOT":0},{"OBJECT_NAME":"IRIDIUM 33 DEB","OBJECT_ID":"1997-051UB","EPOCH":"2026-04-23T00:29:42.432000","MEAN_MOTION":14.52423262,"ECCENTRICITY":0.00285114,"INCLINATION":86.4045,"RA_OF_ASC_NODE":19.4046,"ARG_OF_PERICENTER":89.8196,"MEAN_ANOMALY":284.6167,"EPHEMERIS_TYPE":0,"CLASSIFICATION_TYPE":"U","NORAD_CAT_ID":35918,"ELEMENT_SET_NO":999,"REV_AT_EPOCH":87112,"BSTAR":0.00058233314,"MEAN_MOTION_DOT":2.406e-5,"MEAN_MOTION_DDOT":0},{"OBJECT_NAME":"IRIDIUM 33 DEB","OBJECT_ID":"1997-051UN","EPOCH":"2026-04-23T02:12:19.077408","MEAN_MOTION":15.13410606,"ECCENTRICITY":0.00135569,"INCLINATION":86.3437,"RA_OF_ASC_NODE":249.8913,"ARG_OF_PERICENTER":253.0784,"MEAN_ANOMALY":106.897,"EPHEMERIS_TYPE":0,"CLASSIFICATION_TYPE":"U","NORAD_CAT_ID":35929,"ELEMENT_SET_NO":999,"REV_AT_EPOCH":89759,"BSTAR":0.0016953692,"MEAN_MOTION_DOT":0.00030442,"MEAN_MOTION_DDOT":0},{"OBJECT_NAME":"IRIDIUM 33 DEB","OBJECT_ID":"1997-051US","EPOCH":"2026-04-24T09:13:24.278592","MEAN_MOTION":14.41796545,"ECCENTRICITY":0.0019743,"INCLINATION":86.3414,"RA_OF_ASC_NODE":338.4586,"ARG_OF_PERICENTER":139.0347,"MEAN_ANOMALY":343.6681,"EPHEMERIS_TYPE":0,"CLASSIFICATION_TYPE":"U","NORAD_CAT_ID":36011,"ELEMENT_SET_NO":999,"REV_AT_EPOCH":66451,"BSTAR":0.00027294716,"MEAN_MOTION_DOT":9.13e-6,"MEAN_MOTION_DDOT":0},{"OBJECT_NAME":"IRIDIUM 33 DEB","OBJECT_ID":"1997-051UT","EPOCH":"2026-04-25T19:17:35.376288","MEAN_MOTION":14.20967537,"ECCENTRICITY":0.02195793,"INCLINATION":86.4382,"RA_OF_ASC_NODE":253.3632,"ARG_OF_PERICENTER":193.966,"MEAN_ANOMALY":165.5397,"EPHEMERIS_TYPE":0,"CLASSIFICATION_TYPE":"U","NORAD_CAT_ID":36012,"ELEMENT_SET_NO":999,"REV_AT_EPOCH":67387,"BSTAR":0.0016164889,"MEAN_MOTION_DOT":4.488e-5,"MEAN_MOTION_DDOT":0},{"OBJECT_NAME":"IRIDIUM 33 DEB","OBJECT_ID":"1997-051VK","EPOCH":"2026-04-25T14:35:38.035968","MEAN_MOTION":15.02744787,"ECCENTRICITY":0.00143179,"INCLINATION":86.3184,"RA_OF_ASC_NODE":243.3287,"ARG_OF_PERICENTER":274.3878,"MEAN_ANOMALY":85.572,"EPHEMERIS_TYPE":0,"CLASSIFICATION_TYPE":"U","NORAD_CAT_ID":36028,"ELEMENT_SET_NO":999,"REV_AT_EPOCH":89130,"BSTAR":0.001771255,"MEAN_MOTION_DOT":0.00023792,"MEAN_MOTION_DDOT":0}]
